STARLINK-4415
1 53465U 22099A   26079.92029575  .00000436  00000+0  34409-4 0  9994
2 53465  97.6029 202.2915 0000544 139.0608 221.0660 15.05646489197720
STARLINK-4398
1 53466U 22099B   26079.91668981  .00346951  00000+0  22574-1 0  9996
2 53466  97.6036 201.2475 0001621  79.0264 336.1550 15.06180931  5761
STARLINK-4394
1 53467U 22099C   26079.91475643  .00000173  00000+0  16214-4 0  9998
2 53467  97.6024 202.3422 0001062 207.2687 152.8484 15.05651893197733
STARLINK-4400
1 53468U 22099D   26079.91668981 -.00003456  00000+0 -24287-3 0  9995
2 53468  97.6035 201.2104 0001642 105.5012 242.2106 15.04487070  5711
STARLINK-4399
1 53469U 22099E   26079.90367794  .00000674  00000+0  50893-4 0  9993
2 53469  97.6031 202.2950 0001435 202.6679 157.4484 15.05652898197739
STARLINK-4393
1 53470U 22099F   26079.91971563 -.00002963  00000+0 -22623-3 0  9995
2 53470  97.6017 201.2049 0000596  83.8884 276.2408 15.01268349197665
STARLINK-4316
1 53471U 22099G   26079.92307499  .00002273  00000+0  16167-3 0  9996
2 53471  97.6026 202.2623 0001093 189.9490 170.1716 15.05653898197732
STARLINK-4447
1 53472U 22099H   26079.58275494  .00000226  00000+0  22110-4 0  9990
2 53472  97.6018 200.8749 0000588 100.4044 259.7246 15.01260142197619
STARLINK-4383
1 53473U 22099J   26079.88983708  .00000834  00000+0  61967-4 0  9996
2 53473  97.6034 202.2969 0001104  92.5433 267.5920 15.05653225197737
STARLINK-4445
1 53474U 22099K   26079.91668981 -.00019473  00000+0 -14407-2 0  9990
2 53474  97.6027 201.1981 0001201  92.5931 344.5248 15.03184696  5762
STARLINK-4389
1 53475U 22099L   26079.91668981 -.00016471  00000+0 -10790-2 0  9997
2 53475  97.6035 201.2383 0001021  48.5375  82.0221 15.07683573  5769
STARLINK-4378
1 53476U 22099M   26079.29291167  .00000850  00000+0  64482-4 0  9998
2 53476  97.6035 200.6391 0000979  82.3978 277.7360 15.04838573197575
STARLINK-4412
1 53477U 22099N   26079.91668981 -.00011110  00000+0 -76295-3 0  9997
2 53477  97.6040 201.1848 0001926 120.2956 248.0545 15.05844304  5761
STARLINK-4433
1 53478U 22099P   26079.91668981 -.00045137  00000+0 -35283-2 0  9995
2 53478  97.6021 201.2119 0004708 191.5029 232.2754 15.01292856  5768
STARLINK-4436
1 53479U 22099Q   26079.86768381  .00001256  00000+0  91235-4 0  9998
2 53479  97.6027 202.3099 0000579 239.0814 121.0356 15.05646085197739
STARLINK-4442
1 53480U 22099R   26079.91668981 -.00012925  00000+0 -84647-3 0  9996
2 53480  97.6039 202.2772 0001693  77.9032 341.4297 15.07638014  5780
