[{"OBJECT_NAME":"STARLINK-4415","OBJECT_ID":"2022-099A","EPOCH":"2026-03-20T22:05:13.552800","MEAN_MOTION":15.05646489,"ECCENTRICITY":5.441e-5,"INCLINATION":97.6029,"RA_OF_ASC_NODE":202.2915,"ARG_OF_PERICENTER":139.0608,"MEAN_ANOMALY":221.066,"EPHEMERIS_TYPE":0,"CLASSIFICATION_TYPE":"U","NORAD_CAT_ID":53465,"ELEMENT_SET_NO":999,"REV_AT_EPOCH":19772,"BSTAR":3.4408579e-5,"MEAN_MOTION_DOT":4.36e-6,"MEAN_MOTION_DDOT":0},{"OBJECT_NAME":"STARLINK-4398","OBJECT_ID":"2022-099B","EPOCH":"2026-03-20T22:00:01.999584","MEAN_MOTION":15.06180931,"ECCENTRICITY":0.00016214,"INCLINATION":97.6036,"RA_OF_ASC_NODE":201.2475,"ARG_OF_PERICENTER":79.0264,"MEAN_ANOMALY":336.155,"EPHEMERIS_TYPE":0,"CLASSIFICATION_TYPE":"U","NORAD_CAT_ID":53466,"ELEMENT_SET_NO":999,"REV_AT_EPOCH":576,"BSTAR":0.02257442,"MEAN_MOTION_DOT":0.00346951,"MEAN_MOTION_DDOT":0},{"OBJECT_NAME":"STARLINK-4394","OBJECT_ID":"2022-099C","EPOCH":"2026-03-20T21:57:14.955552","MEAN_MOTION":15.05651893,"ECCENTRICITY":0.00010628,"INCLINATION":97.6024,"RA_OF_ASC_NODE":202.3422,"ARG_OF_PERICENTER":207.2687,"MEAN_ANOMALY":152.8484,"EPHEMERIS_TYPE":0,"CLASSIFICATION_TYPE":"U","NORAD_CAT_ID":53467,"ELEMENT_SET_NO":999,"REV_AT_EPOCH":19773,"BSTAR":1.6214042e-5,"MEAN_MOTION_DOT":1.73e-6,"MEAN_MOTION_DDOT":0},{"OBJECT_NAME":"STARLINK-4400","OBJECT_ID":"2022-099D","EPOCH":"2026-03-20T22:00:01.999584","MEAN_MOTION":15.0448707,"ECCENTRICITY":0.00016427,"INCLINATION":97.6035,"RA_OF_ASC_NODE":201.2104,"ARG_OF_PERICENTER":105.5012,"MEAN_ANOMALY":242.2106,"EPHEMERIS_TYPE":0,"CLASSIFICATION_TYPE":"U","NORAD_CAT_ID":53468,"ELEMENT_SET_NO":999,"REV_AT_EPOCH":571,"BSTAR":-0.00024286888,"MEAN_MOTION_DOT":-3.456e-5,"MEAN_MOTION_DDOT":0},{"OBJECT_NAME":"STARLINK-4399","OBJECT_ID":"2022-099E","EPOCH":"2026-03-20T21:41:17.774016","MEAN_MOTION":15.05652898,"ECCENTRICITY":0.00014356,"INCLINATION":97.6031,"RA_OF_ASC_NODE":202.295,"ARG_OF_PERICENTER":202.6679,"MEAN_ANOMALY":157.4484,"EPHEMERIS_TYPE":0,"CLASSIFICATION_TYPE":"U","NORAD_CAT_ID":53469,"ELEMENT_SET_NO":999,"REV_AT_EPOCH":19773,"BSTAR":5.0892868e-5,"MEAN_MOTION_DOT":6.74e-6,"MEAN_MOTION_DDOT":0},{"OBJECT_NAME":"STARLINK-4393","OBJECT_ID":"2022-099F","EPOCH":"2026-03-20T22:04:23.430432","MEAN_MOTION":15.01268349,"ECCENTRICITY":5.962e-5,"INCLINATION":97.6017,"RA_OF_ASC_NODE":201.2049,"ARG_OF_PERICENTER":83.8884,"MEAN_ANOMALY":276.2408,"EPHEMERIS_TYPE":0,"CLASSIFICATION_TYPE":"U","NORAD_CAT_ID":53470,"ELEMENT_SET_NO":999,"REV_AT_EPOCH":19766,"BSTAR":-0.00022622849,"MEAN_MOTION_DOT":-2.963e-5,"MEAN_MOTION_DDOT":0},{"OBJECT_NAME":"STARLINK-4316","OBJECT_ID":"2022-099G","EPOCH":"2026-03-20T22:09:13.679136","MEAN_MOTION":15.05653898,"ECCENTRICITY":0.00010932,"INCLINATION":97.6026,"RA_OF_ASC_NODE":202.2623,"ARG_OF_PERICENTER":189.949,"MEAN_ANOMALY":170.1716,"EPHEMERIS_TYPE":0,"CLASSIFICATION_TYPE":"U","NORAD_CAT_ID":53471,"ELEMENT_SET_NO":999,"REV_AT_EPOCH":19773,"BSTAR":0.00016166862,"MEAN_MOTION_DOT":2.273e-5,"MEAN_MOTION_DDOT":0},{"OBJECT_NAME":"STARLINK-4447","OBJECT_ID":"2022-099H","EPOCH":"2026-03-20T13:59:10.026816","MEAN_MOTION":15.01260142,"ECCENTRICITY":5.88e-5,"INCLINATION":97.6018,"RA_OF_ASC_NODE":200.8749,"ARG_OF_PERICENTER":100.4044,"MEAN_ANOMALY":259.7246,"EPHEMERIS_TYPE":0,"CLASSIFICATION_TYPE":"U","NORAD_CAT_ID":53472,"ELEMENT_SET_NO":999,"REV_AT_EPOCH":19761,"BSTAR":2.211e-5,"MEAN_MOTION_DOT":2.26e-6,"MEAN_MOTION_DDOT":0},{"OBJECT_NAME":"STARLINK-4383","OBJECT_ID":"2022-099J","EPOCH":"2026-03-20T21:21:21.923712","MEAN_MOTION":15.05653225,"ECCENTRICITY":0.00011045,"INCLINATION":97.6034,"RA_OF_ASC_NODE":202.2969,"ARG_OF_PERICENTER":92.5433,"MEAN_ANOMALY":267.592,"EPHEMERIS_TYPE":0,"CLASSIFICATION_TYPE":"U","NORAD_CAT_ID":53473,"ELEMENT_SET_NO":999,"REV_AT_EPOCH":19773,"BSTAR":6.1967138e-5,"MEAN_MOTION_DOT":8.34e-6,"MEAN_MOTION_DDOT":0},{"OBJECT_NAME":"STARLINK-4445","OBJECT_ID":"2022-099K","EPOCH":"2026-03-20T22:00:01.999584","MEAN_MOTION":15.03184696,"ECCENTRICITY":0.00012014,"INCLINATION":97.6027,"RA_OF_ASC_NODE":201.1981,"ARG_OF_PERICENTER":92.5931,"MEAN_ANOMALY":344.5248,"EPHEMERIS_TYPE":0,"CLASSIFICATION_TYPE":"U","NORAD_CAT_ID":53474,"ELEMENT_SET_NO":999,"REV_AT_EPOCH":576,"BSTAR":-0.0014407481,"MEAN_MOTION_DOT":-0.00019473,"MEAN_MOTION_DDOT":0},{"OBJECT_NAME":"STARLINK-4389","OBJECT_ID":"2022-099L","EPOCH":"2026-03-20T22:00:01.999584","MEAN_MOTION":15.07683573,"ECCENTRICITY":0.00010211,"INCLINATION":97.6035,"RA_OF_ASC_NODE":201.2383,"ARG_OF_PERICENTER":48.5375,"MEAN_ANOMALY":82.0221,"EPHEMERIS_TYPE":0,"CLASSIFICATION_TYPE":"U","NORAD_CAT_ID":53475,"ELEMENT_SET_NO":999,"REV_AT_EPOCH":576,"BSTAR":-0.0010790369,"MEAN_MOTION_DOT":-0.00016471,"MEAN_MOTION_DDOT":0},{"OBJECT_NAME":"STARLINK-4378","OBJECT_ID":"2022-099M","EPOCH":"2026-03-20T07:01:47.568288","MEAN_MOTION":15.04838573,"ECCENTRICITY":9.79e-5,"INCLINATION":97.6035,"RA_OF_ASC_NODE":200.6391,"ARG_OF_PERICENTER":82.3978,"MEAN_ANOMALY":277.736,"EPHEMERIS_TYPE":0,"CLASSIFICATION_TYPE":"U","NORAD_CAT_ID":53476,"ELEMENT_SET_NO":999,"REV_AT_EPOCH":19757,"BSTAR":6.4482e-5,"MEAN_MOTION_DOT":8.5e-6,"MEAN_MOTION_DDOT":0},{"OBJECT_NAME":"STARLINK-4412","OBJECT_ID":"2022-099N","EPOCH":"2026-03-20T22:00:01.999584","MEAN_MOTION":15.05844304,"ECCENTRICITY":0.00019261,"INCLINATION":97.604,"RA_OF_ASC_NODE":201.1848,"ARG_OF_PERICENTER":120.2956,"MEAN_ANOMALY":248.0545,"EPHEMERIS_TYPE":0,"CLASSIFICATION_TYPE":"U","NORAD_CAT_ID":53477,"ELEMENT_SET_NO":999,"REV_AT_EPOCH":576,"BSTAR":-0.00076294689,"MEAN_MOTION_DOT":-0.0001111,"MEAN_MOTION_DDOT":0},{"OBJECT_NAME":"STARLINK-4433","OBJECT_ID":"2022-099P","EPOCH":"2026-03-20T22:00:01.999584","MEAN_MOTION":15.01292856,"ECCENTRICITY":0.00047085,"INCLINATION":97.6021,"RA_OF_ASC_NODE":201.2119,"ARG_OF_PERICENTER":191.5029,"MEAN_ANOMALY":232.2754,"EPHEMERIS_TYPE":0,"CLASSIFICATION_TYPE":"U","NORAD_CAT_ID":53478,"ELEMENT_SET_NO":999,"REV_AT_EPOCH":576,"BSTAR":-0.0035282661,"MEAN_MOTION_DOT":-0.00045137,"MEAN_MOTION_DDOT":0},{"OBJECT_NAME":"STARLINK-4436","OBJECT_ID":"2022-099Q","EPOCH":"2026-03-20T20:49:27.881184","MEAN_MOTION":15.05646085,"ECCENTRICITY":5.792e-5,"INCLINATION":97.6027,"RA_OF_ASC_NODE":202.3099,"ARG_OF_PERICENTER":239.0814,"MEAN_ANOMALY":121.0356,"EPHEMERIS_TYPE":0,"CLASSIFICATION_TYPE":"U","NORAD_CAT_ID":53479,"ELEMENT_SET_NO":999,"REV_AT_EPOCH":19773,"BSTAR":9.1235331e-5,"MEAN_MOTION_DOT":1.256e-5,"MEAN_MOTION_DDOT":0},{"OBJECT_NAME":"STARLINK-4442","OBJECT_ID":"2022-099R","EPOCH":"2026-03-20T22:00:01.999584","MEAN_MOTION":15.07638014,"ECCENTRICITY":0.00016931,"INCLINATION":97.6039,"RA_OF_ASC_NODE":202.2772,"ARG_OF_PERICENTER":77.9032,"MEAN_ANOMALY":341.4297,"EPHEMERIS_TYPE":0,"CLASSIFICATION_TYPE":"U","NORAD_CAT_ID":53480,"ELEMENT_SET_NO":999,"REV_AT_EPOCH":578,"BSTAR":-0.00084646966,"MEAN_MOTION_DOT":-0.00012925,"MEAN_MOTION_DDOT":0}]
